{
  "type": "FeatureCollection",
  "features": [
    {
      "type": "Feature",
      "properties": {
        "norad_id": 38091,
        "name": "BEIDOU-2 G5 (C05)",
        "group": "gnss",
        "lat": 1.2477026260536062,
        "lon": -133.26327823306858,
        "alt_km": 35767.60788816135,
        "timestamp": "2025-12-12T05:47:29.013364+00:00",
        "meta_object_name": "BEIDOU-2 G5 (C05)",
        "meta_object_id": "2012-008A",
        "meta_epoch": "2025-12-11T22:21:01.772928",
        "meta_mean_motion": 1.0027526,
        "meta_eccentricity": 0.00125845,
        "meta_inclination": 3.1076,
        "meta_ra_of_asc_node": 70.7138,
        "meta_arg_of_pericenter": 227.2436,
        "meta_mean_anomaly": 176.9626,
        "meta_ephemeris_type": 0,
        "meta_classification_type": "U",
        "meta_norad_cat_id": 38091,
        "meta_element_set_no": 999,
        "meta_rev_at_epoch": 5049,
        "meta_bstar": 0,
        "meta_mean_motion_dot": 6.4e-07,
        "meta_mean_motion_ddot": 0,
        "tle_line1": "1 38091U 12008A   25345.93127052  .00000064  00000+0  00000+0 0  9998",
        "tle_line2": "2 38091   3.1076  70.7138 0012584 227.2436 176.9626  1.00275260 50490"
      },
      "geometry": {
        "type": "Point",
        "coordinates": [
          -133.26327823306858,
          1.2477026260536062
        ]
      }
    },
    {
      "type": "Feature",
      "properties": {
        "norad_id": 38250,
        "name": "BEIDOU-2 M3 (C11)",
        "group": "gnss",
        "lat": -44.46050675469104,
        "lon": -90.44475839368702,
        "alt_km": 21473.211660392004,
        "timestamp": "2025-12-12T05:47:29.013376+00:00",
        "meta_object_name": "BEIDOU-2 M3 (C11)",
        "meta_object_id": "2012-018A",
        "meta_epoch": "2025-12-09T02:31:53.071968",
        "meta_mean_motion": 1.86229533,
        "meta_eccentricity": 0.00244707,
        "meta_inclination": 55.9232,
        "meta_ra_of_asc_node": 311.2798,
        "meta_arg_of_pericenter": 273.7022,
        "meta_mean_anomaly": 86.0063,
        "meta_ephemeris_type": 0,
        "meta_classification_type": "U",
        "meta_norad_cat_id": 38250,
        "meta_element_set_no": 999,
        "meta_rev_at_epoch": 9240,
        "meta_bstar": 0,
        "meta_mean_motion_dot": -7.5e-07,
        "meta_mean_motion_ddot": 0,
        "tle_line1": "1 38250U 12018A   25343.10547537 -.00000075  00000+0  00000+0 0  9990",
        "tle_line2": "2 38250  55.9232 311.2798 0024470 273.7022  86.0063  1.86229533 92404"
      },
      "geometry": {
        "type": "Point",
        "coordinates": [
          -90.44475839368702,
          -44.46050675469104
        ]
      }
    },
    {
      "type": "Feature",
      "properties": {
        "norad_id": 38251,
        "name": "BEIDOU-2 M4 (C12)",
        "group": "gnss",
        "lat": -9.954772182622118,
        "lon": -56.458602665765575,
        "alt_km": 21515.550194655865,
        "timestamp": "2025-12-12T05:47:29.013387+00:00",
        "meta_object_name": "BEIDOU-2 M4 (C12)",
        "meta_object_id": "2012-018B",
        "meta_epoch": "2025-12-09T00:54:02.015712",
        "meta_mean_motion": 1.86229239,
        "meta_eccentricity": 0.001562,
        "meta_inclination": 55.8247,
        "meta_ra_of_asc_node": 310.5113,
        "meta_arg_of_pericenter": 276.8164,
        "meta_mean_anomaly": 82.9941,
        "meta_ephemeris_type": 0,
        "meta_classification_type": "U",
        "meta_norad_cat_id": 38251,
        "meta_element_set_no": 999,
        "meta_rev_at_epoch": 9240,
        "meta_bstar": 0,
        "meta_mean_motion_dot": -7.4e-07,
        "meta_mean_motion_ddot": 0,
        "tle_line1": "1 38251U 12018B   25343.03752333 -.00000074  00000+0  00000+0 0  9994",
        "tle_line2": "2 38251  55.8247 310.5113 0015620 276.8164  82.9941  1.86229239 92404"
      },
      "geometry": {
        "type": "Point",
        "coordinates": [
          -56.458602665765575,
          -9.954772182622118
        ]
      }
    },
    {
      "type": "Feature",
      "properties": {
        "norad_id": 38652,
        "name": "SES-5 (EGNOS/PRN 136)",
        "group": "gnss",
        "lat": -0.04593482350725021,
        "lon": 173.00592968482349,
        "alt_km": 35786.80506303007,
        "timestamp": "2025-12-12T05:47:29.013402+00:00",
        "meta_object_name": "SES-5 (EGNOS/PRN 136)",
        "meta_object_id": "2012-036A",
        "meta_epoch": "2025-12-11T22:05:40.742880",
        "meta_mean_motion": 1.00270415,
        "meta_eccentricity": 0.00021428,
        "meta_inclination": 0.055,
        "meta_ra_of_asc_node": 306.6178,
        "meta_arg_of_pericenter": 318.678,
        "meta_mean_anomaly": 151.9745,
        "meta_ephemeris_type": 0,
        "meta_classification_type": "U",
        "meta_norad_cat_id": 38652,
        "meta_element_set_no": 999,
        "meta_rev_at_epoch": 4258,
        "meta_bstar": 0,
        "meta_mean_motion_dot": 4.2e-07,
        "meta_mean_motion_ddot": 0,
        "tle_line1": "1 38652U 12036A   25345.92061045  .00000042  00000+0  00000+0 0  9996",
        "tle_line2": "2 38652   0.0550 306.6178 0002142 318.6780 151.9745  1.00270415 42580"
      },
      "geometry": {
        "type": "Point",
        "coordinates": [
          173.00592968482349,
          -0.04593482350725021
        ]
      }
    },
    {
      "type": "Feature",
      "properties": {
        "norad_id": 38775,
        "name": "BEIDOU-2 M6 (C14)",
        "group": "gnss",
        "lat": -1.462062880172767,
        "lon": -109.93727701926282,
        "alt_km": 21558.324339285875,
        "timestamp": "2025-12-12T05:47:29.013414+00:00",
        "meta_object_name": "BEIDOU-2 M6 (C14)",
        "meta_object_id": "2012-050B",
        "meta_epoch": "2025-12-10T21:30:38.140128",
        "meta_mean_motion": 1.86230804,
        "meta_eccentricity": 0.00111381,
        "meta_inclination": 56.3769,
        "meta_ra_of_asc_node": 69.1285,
        "meta_arg_of_pericenter": 344.7378,
        "meta_mean_anomaly": 15.2504,
        "meta_ephemeris_type": 0,
        "meta_classification_type": "U",
        "meta_norad_cat_id": 38775,
        "meta_element_set_no": 999,
        "meta_rev_at_epoch": 8980,
        "meta_bstar": 0,
        "meta_mean_motion_dot": -5.9e-07,
        "meta_mean_motion_ddot": 0,
        "tle_line1": "1 38775U 12050B   25344.89627477 -.00000059  00000+0  00000+0 0  9999",
        "tle_line2": "2 38775  56.3769  69.1285 0011138 344.7378  15.2504  1.86230804 89803"
      },
      "geometry": {
        "type": "Point",
        "coordinates": [
          -109.93727701926282,
          -1.462062880172767
        ]
      }
    },
    {
      "type": "Feature",
      "properties": {
        "norad_id": 38779,
        "name": "GSAT-10 (GAGAN/PRN 128)",
        "group": "gnss",
        "lat": -0.04069218151105538,
        "lon": -108.91999049391694,
        "alt_km": 35790.73758245435,
        "timestamp": "2025-12-12T05:47:29.013426+00:00",
        "meta_object_name": "GSAT-10 (GAGAN/PRN 128)",
        "meta_object_id": "2012-051B",
        "meta_epoch": "2025-12-11T22:51:38.668032",
        "meta_mean_motion": 1.00273131,
        "meta_eccentricity": 0.00024795,
        "meta_inclination": 0.0913,
        "meta_ra_of_asc_node": 266.2869,
        "meta_arg_of_pericenter": 226.288,
        "meta_mean_anomaly": 14.2399,
        "meta_ephemeris_type": 0,
        "meta_classification_type": "U",
        "meta_norad_cat_id": 38779,
        "meta_element_set_no": 999,
        "meta_rev_at_epoch": 4822,
        "meta_bstar": 0,
        "meta_mean_motion_dot": -1.56e-06,
        "meta_mean_motion_ddot": 0,
        "tle_line1": "1 38779U 12051B   25345.95253088 -.00000156  00000+0  00000+0 0  9993",
        "tle_line2": "2 38779   0.0913 266.2869 0002479 226.2880  14.2399  1.00273131 48220"
      },
      "geometry": {
        "type": "Point",
        "coordinates": [
          -108.91999049391694,
          -0.04069218151105538
        ]
      }
    },
    {
      "type": "Feature",
      "properties": {
        "norad_id": 38833,
        "name": "GPS BIIF-3  (PRN 24)",
        "group": "gnss",
        "lat": -52.312899008530124,
        "lon": 78.18729555781958,
        "alt_km": 20561.41768651767,
        "timestamp": "2025-12-12T05:47:29.013438+00:00",
        "meta_object_name": "GPS BIIF-3  (PRN 24)",
        "meta_object_id": "2012-053A",
        "meta_epoch": "2025-12-09T20:38:00.572640",
        "meta_mean_motion": 2.00564945,
        "meta_eccentricity": 0.0175755,
        "meta_inclination": 53.5569,
        "meta_ra_of_asc_node": 151.3565,
        "meta_arg_of_pericenter": 63.953,
        "meta_mean_anomaly": 297.8432,
        "meta_ephemeris_type": 0,
        "meta_classification_type": "U",
        "meta_norad_cat_id": 38833,
        "meta_element_set_no": 999,
        "meta_rev_at_epoch": 9564,
        "meta_bstar": 0,
        "meta_mean_motion_dot": 6.8e-07,
        "meta_mean_motion_ddot": 0,
        "tle_line1": "1 38833U 12053A   25343.85972885  .00000068  00000+0  00000+0 0  9997",
        "tle_line2": "2 38833  53.5569 151.3565 0175755  63.9530 297.8432  2.00564945 95646"
      },
      "geometry": {
        "type": "Point",
        "coordinates": [
          78.18729555781958,
          -52.312899008530124
        ]
      }
    }
  ]
}